<?xml version="1.0" encoding="UTF-8"?><kml xmlns="http://earth.google.com/kml/2.0"><Folder><name>GEO Vitoria-Gasteiz</name><description>Creative Commons Attribution 3.0. Exported on Wed Jul 06 2016 09:30:28 GMT+0200 (Hora de verano romance)</description><Placemark><Style><IconStyle><Icon><href>http://www.vitoria-gasteiz.org/j16-02/http/img/ico/61_grp_0.png</href></Icon></IconStyle></Style><name>Parking San Martín</name><description/><Point><coordinates>-2.6851899999999986,42.844637999999904</coordinates></Point></Placemark><Placemark><Style><IconStyle><Icon><href>http://www.vitoria-gasteiz.org/j16-02/http/img/ico/61_grp_0.png</href></Icon></IconStyle></Style><name>Parking Aldabe</name><description/><Point><coordinates>-2.6742069999999987,42.85241699999989</coordinates></Point></Placemark><Placemark><Style><IconStyle><Icon><href>http://www.vitoria-gasteiz.org/j16-02/http/img/ico/61_grp_0.png</href></Icon></IconStyle></Style><name>Parking de la estación del tren (Renfe)</name><description/><Point><coordinates>-2.6726329999999994,42.8417329999999</coordinates></Point></Placemark><Placemark><Style><IconStyle><Icon><href>http://www.vitoria-gasteiz.org/j16-02/http/img/ico/61_grp_0.png</href></Icon></IconStyle></Style><name>Parking de autocaravanas</name><description/><Point><coordinates>-2.6853199999999995,42.8657889999999</coordinates></Point></Placemark><Placemark><Style><IconStyle><Icon><href>http://www.vitoria-gasteiz.org/j16-02/http/img/ico/61_grp_0.png</href></Icon></IconStyle></Style><name>Parking San José</name><description/><Point><coordinates>-2.677004999999999,42.84956399999991</coordinates></Point></Placemark></Folder></kml>
