<?xml version="1.0" encoding="UTF-8"?><kml xmlns="http://earth.google.com/kml/2.0"><Folder><name>GEO Vitoria-Gasteiz</name><description>Creative Commons Attribution 3.0. Exported on Wed Jul 06 2016 09:30:28 GMT+0200 (Hora de verano romance)</description><Placemark><Style><IconStyle><Icon><href>http://www.vitoria-gasteiz.org/j16-02/http/img/ico/61_grp_0.png</href></Icon></IconStyle></Style><name>Parking Amárica</name><description/><Point><coordinates>-2.673689999999999,42.84239499999991</coordinates></Point></Placemark><Placemark><Style><IconStyle><Icon><href>http://www.vitoria-gasteiz.org/j16-02/http/img/ico/61_grp_0.png</href></Icon></IconStyle></Style><name>Parking Juan de Ayala</name><description/><Point><coordinates>-2.678552999999999,42.848188999999905</coordinates></Point></Placemark><Placemark><Style><IconStyle><Icon><href>http://www.vitoria-gasteiz.org/j16-02/http/img/ico/61_grp_0.png</href></Icon></IconStyle></Style><name>Parking Catedral</name><description/><Point><coordinates>-2.678686999999999,42.845366999999904</coordinates></Point></Placemark><Placemark><Style><IconStyle><Icon><href>http://www.vitoria-gasteiz.org/j16-02/http/img/ico/61_grp_0.png</href></Icon></IconStyle></Style><name>Parking de Santa Bárbara</name><description/><Point><coordinates>-2.6665179999999995,42.844387999999896</coordinates></Point></Placemark><Placemark><Style><IconStyle><Icon><href>http://www.vitoria-gasteiz.org/j16-02/http/img/ico/61_grp_0.png</href></Icon></IconStyle></Style><name>Parking Europa</name><description/><Point><coordinates>-2.68079,42.8522399999999</coordinates></Point></Placemark><Placemark><Style><IconStyle><Icon><href>http://www.vitoria-gasteiz.org/j16-02/http/img/ico/61_grp_0.png</href></Icon></IconStyle></Style><name>Parking Iradier Arena</name><description/><Point><coordinates>-2.6666139999999996,42.84142599999989</coordinates></Point></Placemark><Placemark><Style><IconStyle><Icon><href>http://www.vitoria-gasteiz.org/j16-02/http/img/ico/61_grp_0.png</href></Icon></IconStyle></Style><name>Parking Francia IV</name><description/><Point><coordinates>-2.6678239999999986,42.8474889999999</coordinates></Point></Placemark><Placemark><Style><IconStyle><Icon><href>http://www.vitoria-gasteiz.org/j16-02/http/img/ico/61_grp_0.png</href></Icon></IconStyle></Style><name>Parking del Edificio Deba</name><description/><Point><coordinates>-2.663011999999999,42.859097999999896</coordinates></Point></Placemark><Placemark><Style><IconStyle><Icon><href>http://www.vitoria-gasteiz.org/j16-02/http/img/ico/61_grp_0.png</href></Icon></IconStyle></Style><name>Parking Dendaraba</name><description/><Point><coordinates>-2.6692049999999985,42.84469899999989</coordinates></Point></Placemark><Placemark><Style><IconStyle><Icon><href>http://www.vitoria-gasteiz.org/j16-02/http/img/ico/61_grp_0.png</href></Icon></IconStyle></Style><name>Parking Artium</name><description/><Point><coordinates>-2.667048999999999,42.849080999999885</coordinates></Point></Placemark></Folder></kml>
